NORAD_CAT_ID,OBJECT_NAME,OBJECT_TYPE,EPOCH,MEAN_MOTION,ECCENTRICITY,INCLINATION,RA_OF_ASC_NODE,ARG_OF_PERICENTER,MEAN_ANOMALY,BSTAR,MEAN_MOTION_DOT,MEAN_MOTION_DDOT,TLE_LINE0,TLE_LINE1,TLE_LINE2,SEMIMAJOR_AXIS,PERIOD,APOGEE,PERIGEE,DECAYED
52564.0,STARLINK-3959,PAYLOAD,2022-07-17 22:00:00,15.0884116,0.0001768,53.2183,348.1943,43.6558,244.0027,-0.0031733,-0.0005044,0.0,0 STARLINK-3959,1 52564U 22051AH  22198.91667824 -.00050440  00000-0 -31733-2 0  9991,2 52564  53.2183 348.1943 0001768  43.6558 244.0027 15.08841160  1308,6917.877,95.437,540.965,538.519,0.0
52564.0,STARLINK-3959,PAYLOAD,2022-07-18 14:00:01,15.08844325,0.0001708,53.2191,345.2055,48.0286,262.7649,-0.0010390999999999,-0.00016789,0.0,0 STARLINK-3959,1 52564U 22051AH  22199.58334491 -.00016789  00000-0 -10391-2 0  9991,2 52564  53.2191 345.2055 0001708  48.0286 262.7649 15.08844325  1303,6917.8669999999975,95.437,540.914,538.5509999999998,0.0
52564.0,STARLINK-3959,PAYLOAD,2022-07-18 16:00:00,15.08839988,0.0001789,53.219,344.8319,46.4686,357.2243,-0.00065133,-0.00010639,0.0,0 STARLINK-3959,1 52564U 22051AH  22199.66667824 -.00010639  00000-0 -65133-3 0  9992,2 52564  53.2190 344.8319 0001789  46.4686 357.2243 15.08839988 10652,6917.88,95.438,540.9830000000002,538.508,0.0
52564.0,STARLINK-3959,PAYLOAD,2022-07-18 22:00:00,15.08848515,0.0001836,53.2186,343.7093,43.0024,279.3809,-0.0016859,-0.00027026,0.0,0 STARLINK-3959,1 52564U 22051AH  22199.91667824 -.00027026  00000-0 -16859-2 0  9998,2 52564  53.2186 343.7093 0001836  43.0024 279.3809 15.08848515  1306,6917.854,95.437,540.989,538.4490000000002,0.0
52564.0,STARLINK-3959,PAYLOAD,2022-07-19 14:00:01,15.08849052,0.0001879,53.219,340.7168,49.2423,296.3228,-0.00085183,-0.00013823,0.0,0 STARLINK-3959,1 52564U 22051AH  22200.58334491 -.00013823  00000-0 -85183-3 0  9992,2 52564  53.2190 340.7168 0001879  49.2423 296.3228 15.08849052 10793,6917.853,95.437,541.018,538.418,0.0
52564.0,STARLINK-3959,PAYLOAD,2022-07-19 22:00:00,15.08856945,0.0001933,53.2179,339.2169,42.819,314.3391,-0.0023919,-0.00038172,0.0,0 STARLINK-3959,1 52564U 22051AH  22200.91667824 -.00038172  00000-0 -23919-2 0  9990,2 52564  53.2179 339.2169 0001933  42.8190 314.3391 15.08856945  1303,6917.829000000002,95.436,541.031,538.356,0.0
52564.0,STARLINK-3959,PAYLOAD,2022-07-20 06:00:00,15.08819613,0.0001723,53.219,337.7229,47.5195,321.2773,0.0043254,0.00069188,0.0,0 STARLINK-3959,1 52564U 22051AH  22201.25001157  .00069188  00000-0  43254-2 0  9992,2 52564  53.2190 337.7229 0001723  47.5195 321.2773 15.08819613 10896,6917.943,95.439,541.0,538.616,0.0
52564.0,STARLINK-3959,PAYLOAD,2022-07-20 14:00:01,15.08844558,0.0001983,53.2191,336.2279,48.4222,331.9515,-0.0010099,-0.00016327,0.0,0 STARLINK-3959,1 52564U 22051AH  22201.58334491 -.00016327  00000-0 -10099-2 0  9998,2 52564  53.2191 336.2279 0001983  48.4222 331.9515 15.08844558  1309,6917.866,95.437,541.1030000000002,538.36,0.0
52564.0,STARLINK-3959,PAYLOAD,2022-07-20 22:00:01,15.08839157,0.000202,53.219,334.7318,44.4902,347.5278,0.0007587999999999,0.00011809,0.0,0 STARLINK-3959,1 52564U 22051AH  22201.91668981  .00011809  00000-0  75880-3 0  9997,2 52564  53.2190 334.7318 0002020  44.4902 347.5278 15.08839157  1307,6917.8830000000025,95.438,541.145,538.351,0.0
52564.0,STARLINK-3959,PAYLOAD,2022-07-21 14:00:01,15.08834436,0.0001879,53.2194,331.7389,44.6866,10.5092,-0.003622,-0.00057465,0.0,0 STARLINK-3959,1 52564U 22051AH  22202.58335648 -.00057465  00000-0 -36220-2 0  9996,2 52564  53.2194 331.7389 0001879  44.6866  10.5092 15.08834436 11091,6917.897,95.438,541.062,538.4630000000002,0.0
52564.0,STARLINK-3959,PAYLOAD,2022-07-21 22:00:00,15.08808305,0.0001899,53.2193,330.2429,39.9979,26.6948,0.00026659,3.954e-05,0.0,0 STARLINK-3959,1 52564U 22051AH  22202.91667824  .00003954  00000-0  26659-3 0  9995,2 52564  53.2193 330.2429 0001899  39.9979  26.6948 15.08808305  1300,6917.977,95.44,541.156,538.529,0.0
52564.0,STARLINK-3959,PAYLOAD,2022-07-22 06:00:00,15.08794352,0.0001696999999999,53.2195,328.745,46.0447,32.2179,0.0035806999999999,0.00057089,0.0,0 STARLINK-3959,1 52564U 22051AH  22203.25001157  .00057089  00000-0  35807-2 0  9996,2 52564  53.2195 328.7450 0001697  46.0447  32.2179 15.08794352  1308,6918.02,95.44,541.059,538.711,0.0
52564.0,STARLINK-3959,PAYLOAD,2022-07-22 22:00:00,15.08848274,0.0001896,53.2193,325.7539,40.3846,61.0279,2.9855e-05,1.87e-06,0.0,0 STARLINK-3959,1 52564U 22051AH  22203.91667824  .00000187  00000-0  29855-4 0  9993,2 52564  53.2193 325.7539 0001896  40.3846  61.0279 15.08848274 11295,6917.855,95.437,541.0319999999998,538.408,0.0
52564.0,STARLINK-3959,PAYLOAD,2022-07-23 14:00:01,15.08860452,0.0001786999999999,53.2195,322.7613,41.4308,83.2518,-0.0033215,-0.00052793,0.0,0 STARLINK-3959,1 52564U 22051AH  22204.58335648 -.00052793  00000-0 -33215-2 0  9998,2 52564  53.2195 322.7613 0001787  41.4308  83.2518 15.08860452  1306,6917.818,95.436,540.919,538.447,0.0
52564.0,STARLINK-3959,PAYLOAD,2022-07-23 22:00:00,15.08845329,0.0001764,53.2191,321.2648,38.302,97.9097,-0.00048722,-8.035e-05,0.0,0 STARLINK-3959,1 52564U 22051AH  22204.91667824 -.00008035  00000-0 -48722-3 0  9999,2 52564  53.2191 321.2648 0001764  38.3020  97.9097 15.08845329  1305,6917.864000000001,95.437,540.9490000000002,538.509,0.0
52564.0,STARLINK-3959,PAYLOAD,2022-07-24 14:00:01,15.08858697,0.0001774,53.2192,318.2726,42.1145,117.2841,-0.0023013,-0.00036746,0.0,0 STARLINK-3959,1 52564U 22051AH  22205.58334491 -.00036746  00000-0 -23013-2 0  9999,2 52564  53.2192 318.2726 0001774  42.1145 117.2841 15.08858697  1306,6917.823,95.436,540.915,538.461,0.0
52564.0,STARLINK-3959,PAYLOAD,2022-07-24 22:00:00,15.08842952,0.00018,53.2188,316.7759,42.2165,128.7817,-0.0020102999999999,-0.00032143,0.0,0 STARLINK-3959,1 52564U 22051AH  22205.91667824 -.00032143  00000-0 -20103-2 0  9999,2 52564  53.2188 316.7759 0001800  42.2165 128.7817 15.08842952 11604,6917.871,95.437,540.982,538.491,0.0
52564.0,STARLINK-3959,PAYLOAD,2022-07-25 14:00:01,15.08831061,0.0001849,53.2189,313.784,44.6873,149.4752,-0.00041116,-6.824e-05,0.0,0 STARLINK-3959,1 52564U 22051AH  22206.58334491 -.00006824  00000-0 -41116-3 0  9999,2 52564  53.2189 313.7840 0001849  44.6873 149.4752 15.08831061  1301,6917.908,95.438,541.052,538.494,0.0
52564.0,STARLINK-3959,PAYLOAD,2022-07-25 22:00:00,15.08851426,0.0001823,53.2186,312.2871,43.4414,162.3003,-0.0016784,-0.00026909,0.0,0 STARLINK-3959,1 52564U 22051AH  22206.91667824 -.00026909  00000-0 -16784-2 0  9993,2 52564  53.2186 312.2871 0001823  43.4414 162.3003 15.08851426  1306,6917.845,95.437,540.972,538.4490000000002,0.0
52564.0,STARLINK-3959,PAYLOAD,2022-07-26 06:00:00,15.08855247,0.0001857,53.2175,310.7768,47.0481,170.3603,-0.0019599,-0.00031358,0.0,0 STARLINK-3959,1 52564U 22051AH  22207.25001157 -.00031358  00000-0 -19599-2 0  9993,2 52564  53.2175 310.7768 0001857  47.0481 170.3603 15.08855247 11809,6917.834,95.437,540.9830000000002,538.414,0.0
52564.0,STARLINK-3959,PAYLOAD,2022-07-26 14:00:01,15.08842815,0.0001916,53.2187,309.2953,44.4783,184.4591,3.5942e-05,2.84e-06,0.0,0 STARLINK-3959,1 52564U 22051AH  22207.58334491  .00000284  00000-0  35942-4 0  9993,2 52564  53.2187 309.2953 0001916  44.4783 184.4591 15.08842815  1306,6917.871999999999,95.437,541.062,538.411,0.0
52564.0,STARLINK-3959,PAYLOAD,2022-07-26 22:00:00,15.08868401,0.0001867,53.2187,307.7983,43.2137,197.3196,-0.0018936,-0.00030322,0.0,0 STARLINK-3959,1 52564U 22051AH  22207.91667824 -.00030322  00000-0 -18936-2 0  9999,2 52564  53.2187 307.7983 0001867  43.2137 197.3196 15.08868401  1300,6917.794,95.436,540.95,538.367,0.0
52564.0,STARLINK-3959,PAYLOAD,2022-07-27 14:00:01,15.08849185,0.0001943999999999,53.2189,304.8065,42.43600000000001,221.3331,-0.0015101,-0.00024247,0.0,0 STARLINK-3959,1 52564U 22051AH  22208.58334491 -.00024247  00000-0 -15101-2 0  9994,2 52564  53.2189 304.8065 0001944  42.4360 221.3331 15.08849185  1303,6917.852,95.437,541.062,538.372,0.0
52564.0,STARLINK-3959,PAYLOAD,2022-07-27 16:00:00,15.08823522,0.0001952,53.2191,304.4327,41.4846,315.1919,0.0016515,0.00026082,0.0,0 STARLINK-3959,1 52564U 22051AH  22208.66667824  .00026082  00000-0  16515-2 0  9999,2 52564  53.2191 304.4327 0001952  41.4846 315.1919 15.08823522 12011,6917.931,95.439,541.146,538.445,0.0
52564.0,STARLINK-3959,PAYLOAD,2022-07-27 22:00:00,15.08856331,0.0001857,53.2189,303.3095,40.6056,234.7546,-0.002117,-0.00033838,0.0,0 STARLINK-3959,1 52564U 22051AH  22208.91667824 -.00033838  00000-0 -21170-2 0  9999,2 52564  53.2189 303.3095 0001857  40.6056 234.7546 15.08856331  1302,6917.83,95.437,540.98,538.411,0.0
52564.0,STARLINK-3959,PAYLOAD,2022-07-28 14:00:01,15.08856305,0.0001959,53.2192,300.3178,40.415,258.1561,-0.0019069,-0.00030522,0.0,0 STARLINK-3959,1 52564U 22051AH  22209.58334491 -.00030522  00000-0 -19069-2 0  9995,2 52564  53.2192 300.3178 0001959  40.4150 258.1561 15.08856305  1309,6917.831,95.437,541.0509999999998,538.34,0.0
52564.0,STARLINK-3959,PAYLOAD,2022-07-28 22:00:00,15.08846609,0.0001838,53.2191,298.8208,38.4419,271.7336,-0.0020712,-0.00033107,0.0,0 STARLINK-3959,1 52564U 22051AH  22209.91667824 -.00033107  00000-0 -20712-2 0  9990,2 52564  53.2191 298.8208 0001838  38.4419 271.7336 15.08846609  1301,6917.86,95.437,540.997,538.4540000000002,0.0
52564.0,STARLINK-3959,PAYLOAD,2022-07-29 00:00:00,15.08829399,0.0001766999999999,53.2193,298.4462,40.0754,3.0028,6.3256e-05,7.19e-06,0.0,0 STARLINK-3959,1 52564U 22051AH  22210.00001157  .00000719  00000-0  63256-4 0  9996,2 52564  53.2193 298.4462 0001767  40.0754   3.0028 15.08829399 12216,6917.913000000001,95.438,541.0,538.555,0.0
52564.0,STARLINK-3959,PAYLOAD,2022-07-29 14:00:01,15.08829178,0.0001963,53.2174,295.8293,38.8767,294.4771,0.00084724,0.00013218,0.0,0 STARLINK-3959,1 52564U 22051AH  22210.58334491  .00013218  00000-0  84724-3 0  9999,2 52564  53.2174 295.8293 0001963  38.8767 294.4771 15.08829178  1309,6917.913000000001,95.438,541.136,538.42,0.0
